{"type": "FeatureCollection", "features": [{"type": "Feature", "geometry": {"type": "Polygon", "coordinates": [[[-99.0424, 21.2936], [-99.0449, 21.2723], [-99.0695, 21.2322], [-99.0777, 21.1979], [-99.0936, 21.1762], [-99.1173, 21.1665], [-99.1593, 21.1646], [-99.212, 21.1385], [-99.2579, 21.1279], [-99.3061, 21.1545], [-99.325, 21.1293], [-99.3724, 21.1009], [-99.3773, 21.0868], [-99.3613, 21.0593], [-99.3816, 21.0318], [-99.3946, 21.0008], [-99.396, 20.9651], [-99.4134, 20.9178], [-99.4458, 20.8728], [-99.4787, 20.8695], [-99.4922, 20.8569], [-99.5187, 20.7932], [-99.5381, 20.7608], [-99.539, 20.7415], [-99.513, 20.7052], [-99.513, 20.6849], [-99.5459, 20.6573], [-99.5743, 20.6467], [-99.6057, 20.6245], [-99.6622, 20.6115], [-99.6907, 20.5975], [-99.7227, 20.5975], [-99.7588, 20.5719], [-99.8221, 20.5535], [-99.8448, 20.4467], [-99.8531, 20.3893], [-99.8535, 20.3289], [-99.8622, 20.3071], [-99.9062, 20.2772], [-99.9183, 20.2535], [-99.9101, 20.2264], [-99.9361, 20.2216], [-99.9714, 20.2443], [-99.9811, 20.2327], [-99.9593, 20.1965], [-99.9448, 20.1443], [-99.9477, 20.1313], [-100.0245, 20.0554], [-100.0395, 20.0487], [-100.084, 20.055], [-100.1265, 20.0438], [-100.1516, 20.0613], [-100.2579, 20.1583], [-100.2506, 20.1868], [-100.2632, 20.2129], [-100.2994, 20.2593], [-100.3241, 20.283], [-100.3613, 20.2965], [-100.3902, 20.3593], [-100.4347, 20.3844], [-100.4709, 20.4125], [-100.5144, 20.4825], [-100.5197, 20.5057], [-100.5139, 20.5844], [-100.54, 20.6501], [-100.5782, 20.6767], [-100.584, 20.7052], [-100.5724, 20.8019], [-100.5579, 20.8482], [-100.5294, 20.9009], [-100.4492, 20.9129], [-100.4265, 20.9033], [-100.3922, 20.9168], [-100.3463, 20.9115], [-100.2864, 20.9381], [-100.24, 20.937], [-100.1777, 20.9241], [-100.1511, 20.939], [-100.1516, 20.9733], [-100.1424, 20.9801], [-100.1096, 20.9622], [-100.083, 21.0221], [-100.0869, 21.0767], [-100.0511, 21.1216], [-100.0236, 21.1752], [-99.997, 21.2018], [-99.9361, 21.2226], [-99.8941, 21.1743], [-99.8671, 21.1574], [-99.8231, 21.1637], [-99.8009, 21.2023], [-99.7429, 21.2274], [-99.7245, 21.2516], [-99.7144, 21.2811], [-99.713, 21.325], [-99.7222, 21.3318], [-99.812, 21.3477], [-99.8014, 21.3801], [-99.7661, 21.4192], [-99.7685, 21.4555], [-99.7617, 21.4965], [-99.7816, 21.5148], [-99.8052, 21.5361], [-99.7845, 21.5482], [-99.7439, 21.5501], [-99.755, 21.567], [-99.7477, 21.5849], [-99.7038, 21.5835], [-99.6594, 21.5636], [-99.6434, 21.5462], [-99.6197, 21.4752], [-99.5945, 21.4506], [-99.5632, 21.4443], [-99.4951, 21.4414], [-99.4617, 21.4549], [-99.4178, 21.4603], [-99.3946, 21.4468], [-99.3521, 21.5501], [-99.3298, 21.5641], [-99.298, 21.555], [-99.2704, 21.5569], [-99.2685, 21.527], [-99.2391, 21.4834], [-99.1743, 21.4158], [-99.1502, 21.3989], [-99.1106, 21.3579], [-99.0777, 21.3033], [-99.0424, 21.2936]]]}, "properties": {"name": "Quer\u00e9taro", "id": "MX-QUE", "CNTRY": "Mexico", "TYPE": "State"}, "id": "MX-QUE"}]}